ALSAT-3A                
1 67474U 26009A   26045.23024102  .00007401  00000+0  31206-3 0  9992
2 67474  97.4675 119.8628 0012909 151.4762 208.7184 15.23532730  4555
CZ-2C R/B               
1 67475U 26009B   26045.23706900  .00002818  00000+0  19076-3 0  9994
2 67475  97.1732 117.5121 0100327 119.8016 241.3233 15.03162633  4559
TIANQI-37               
1 67476U 26010A   26039.27753693  .00000165  00000+0  15719-3 0  9998
2 67476  44.9825 296.6529 0012909  70.2546 289.9683 14.13528441  3324
TIANQI-38               
1 67477U 26010B   26039.27310946  .00000208  00000+0  17865-3 0  9991
2 67477  44.9788 296.6199 0011754  75.6443 284.5700 14.13905796  3321
TIANQI-39               
1 67478U 26010C   26039.42000177  .00000151  00000+0  15132-3 0  9993
2 67478  44.9839 296.0175 0016488  83.0314 277.2399 14.13055230  3340
TIANQI-40               
1 67479U 26010D   26040.19213046  .00000156  00000+0  15351-3 0  9999
2 67479  44.9786 292.4342 0011741  80.4003 279.8161 14.13182235  3454
SZ-20 MODULE            
1 67481U 25082C   26044.29255673  .00024261  00000+0  26471-3 0  9995
2 67481  41.4801 356.0296 0007578 171.4719 188.6251 15.62764588273807
2025-313BE              
1 67482U 25313BE  26045.18444737  .00069108  00000+0  26549-2 0  9997
2 67482  97.4061 122.0055 0008320  71.4005 288.8136 15.26139589  4381
ION SCV-021             
1 67483U 25276DT  26034.18647169 -.00137880  00000+0 -12184-1 0  9992
2 67483  97.5347 109.4970 0011364 207.9438 152.1175 14.97059561  2554
STARLINK-36551          
1 67493U 26012A   26045.25002315 -.01869381  00000+0 -54782-1 0  9999
2 67493  42.9999  87.2660 0000928 274.0156   9.0714 15.37862457  5303
STARLINK-36396          
1 67494U 26012B   26045.24589701  .00055882  00000+0  95003-3 0  9991
2 67494  43.0007  87.9313 0000306 178.2860 181.8002 15.50624752  4166
STARLINK-36550          
1 67495U 26012C   26044.17864642  .00069826  00000+0  11860-2 0  9994
2 67495  43.0016  93.6684 0002737 258.5376 101.5177 15.50564110  4002
